API VERSION: 1.2
API SOURCE: NASA/JPL Horizons API

*******************************************************************************
 Revised: January 26, 2022             Saturn                               699
 
 PHYSICAL DATA:
  Mass x10^26 (kg)      = 5.6834          Density (g/cm^3)       =  0.687+-.001
  Equat. radius (1 bar) = 60268+-4 km     Polar radius (km)      = 54364+-10
  Vol. Mean Radius (km) = 58232+-6        Flattening             =  0.09796
  Geometric Albedo      = 0.47            Rocky core mass (Mc/M) =  0.1027
  Sid. rot. period (III)= 10h 39m 22.4s   Sid. rot. rate (rad/s) =  0.000163785 
  Mean solar day, hrs   =~10.656         
  GM (km^3/s^2)         = 37931206.234    GM 1-sigma (km^3/s^2)  = +- 98
  Equ. grav, ge (m/s^2) = 10.44           Pol. grav, gp (m/s^2)  = 12.14+-0.01
  Vis. magnitude V(1,0) = -8.88          
  Vis. mag. (opposition)= +0.67           Obliquity to orbit     = 26.73 deg
  Sidereal orbit period = 29.447498 yr    Sidereal orbit period  = 10755.698 d
  Mean daily motion     = 0.0334979 deg/d Mean orbit velocity    =  9.68 km/s
  Atmos. temp. (1 bar)  = 134+-4 K        Escape speed, km/s    =  35.5          
  Aroche(ice)/Rp        =  2.71           Hill's sphere rad. Rp  = 1100
                                 Perihelion  Aphelion    Mean
  Solar Constant (W/m^2)         16.8        13.6        15.1
  Maximum Planetary IR (W/m^2)    4.7         4.5         4.6
  Minimum Planetary IR (W/m^2)    4.7         4.5         4.6
*******************************************************************************


*******************************************************************************
Ephemeris / API_USER Sun Mar  1 11:37:04 2026 Pasadena, USA      / Horizons
*******************************************************************************
Target body name: Saturn (699)                    {source: sat441l}
Center body name: Sun (10)                        {source: DE441}
Center-site name: BODY CENTER
*******************************************************************************
Start time      : A.D. 1914-Apr-11 00:00:00.0000 TDB
Stop  time      : A.D. 2078-Jun-19 00:00:00.0000 TDB
Step-size       : 43200 minutes
*******************************************************************************
Center geodetic : 0.0, 0.0, 0.0                   {E-lon(deg),Lat(deg),Alt(km)}
Center cylindric: 0.0, 0.0, 0.0                   {E-lon(deg),Dxy(km),Dz(km)}
Center radii    : 695700.0, 695700.0, 695700.0 km {Equator_a, b, pole_c}
Output units    : AU-D
Calendar mode   : Mixed Julian/Gregorian
Output type     : GEOMETRIC cartesian states
Output format   : 3 (position, velocity, LT, range, range-rate)
Reference frame : Ecliptic of J2000.0
*******************************************************************************
JDTDB
   X     Y     Z
   VX    VY    VZ
   LT    RG    RR
*******************************************************************************
$$SOE
2472073.500000000 = A.D. 2056-Mar-16 00:00:00.0000 TDB 
 X = 9.243548591916825E+00 Y = 1.827323478046626E+00 Z =-3.999211952794326E-01
 VX=-1.378670189197679E-03 VY= 5.469118642860028E-03 VZ=-3.950871379552740E-05
 LT= 5.446844723327342E-02 RG= 9.430919288541370E+00 RR=-2.899140083864604E-04
2472103.500000000 = A.D. 2056-Apr-15 00:00:00.0000 TDB 
 X = 9.200741614186535E+00 Y = 1.991106602000713E+00 Z =-4.010476401341898E-01
 VX=-1.476586475307099E-03 VY= 5.449603508128008E-03 VZ=-3.551314780483206E-05
 LT= 5.441843763796817E-02 RG= 9.422260395532055E+00 RR=-2.887530728987695E-04
2472133.500000000 = A.D. 2056-May-15 00:00:00.0000 TDB 
 X = 9.154997404270127E+00 Y = 2.154261508697758E+00 Z =-4.020456637594677E-01
 VX=-1.574007001329747E-03 VY= 5.428069198034935E-03 VZ=-3.141970671393457E-05
 LT= 5.436860215810400E-02 RG= 9.413631649676827E+00 RR=-2.872342381119372E-04
2472163.500000000 = A.D. 2056-Jun-14 00:00:00.0000 TDB 
 X = 9.106321803493470E+00 Y = 2.316734641850504E+00 Z =-4.029148959921798E-01
 VX=-1.671081498685905E-03 VY= 5.404479967825655E-03 VZ=-2.719134007973685E-05
 LT= 5.431895611916636E-02 RG= 9.405035704501239E+00 RR=-2.855602267414809E-04
2472193.500000000 = A.D. 2056-Jul-14 00:00:00.0000 TDB 
 X = 9.054721782520446E+00 Y = 2.478471701869955E+00 Z =-4.036549105181133E-01
 VX=-1.767921871200398E-03 VY= 5.378705686247044E-03 VZ=-2.275771987015505E-05
 LT= 5.426951465736203E-02 RG= 9.396475180758248E+00 RR=-2.839239740650460E-04
2472223.500000000 = A.D. 2056-Aug-13 00:00:00.0000 TDB 
 X = 9.000207247050447E+00 Y = 2.639419233314284E+00 Z =-4.042655607845859E-01
 VX=-1.864825687862552E-03 VY= 5.350980983664900E-03 VZ=-1.817474156109689E-05
 LT= 5.422030494854219E-02 RG= 9.387954783800634E+00 RR=-2.825948978249023E-04
2472253.500000000 = A.D. 2056-Sep-12 00:00:00.0000 TDB 
 X = 8.942787673450917E+00 Y = 2.799524359376530E+00 Z =-4.047463985602033E-01
 VX=-1.961830656590247E-03 VY= 5.321583051728629E-03 VZ=-1.359011124112142E-05
 LT= 5.417134716089353E-02 RG= 9.379478005641664E+00 RR=-2.815543763975437E-04
2472283.500000000 = A.D. 2056-Oct-12 00:00:00.0000 TDB 
 X = 8.882472915341612E+00 Y = 2.958732000779210E+00 Z =-4.050966070753535E-01
 VX=-2.058716636242692E-03 VY= 5.290618451567965E-03 VZ=-9.103220609677437E-06
 LT= 5.412265420445131E-02 RG= 9.371047081584653E+00 RR=-2.805753656500419E-04
2472313.500000000 = A.D. 2056-Nov-11 00:00:00.0000 TDB 
 X = 8.819274411054892E+00 Y = 3.116987105605685E+00 Z =-4.053154926891935E-01
 VX=-2.155218682259572E-03 VY= 5.258253816399484E-03 VZ=-4.810885122588299E-06
 LT= 5.407424164233934E-02 RG= 9.362664706300956E+00 RR=-2.793655211134720E-04
2472343.500000000 = A.D. 2056-Dec-11 00:00:00.0000 TDB 
 X = 8.753202991158460E+00 Y = 3.274234030298420E+00 Z =-4.054021033752566E-01
 VX=-2.250911403615526E-03 VY= 5.224247379035836E-03 VZ=-6.542308758137435E-07
 LT= 5.402611433560330E-02 RG= 9.354331721454544E+00 RR=-2.776265296743913E-04
2472373.500000000 = A.D. 2057-Jan-10 00:00:00.0000 TDB 
 X = 8.684271833773863E+00 Y = 3.430416519047212E+00 Z =-4.053559182665214E-01
 VX=-2.345697135919909E-03 VY= 5.188255632341316E-03 VZ= 3.537534285358705E-06
 LT= 5.397828235842669E-02 RG= 9.346049871336218E+00 RR=-2.754348347919203E-04
2472403.500000000 = A.D. 2057-Feb-09 00:00:00.0000 TDB 
 X = 8.612496539232355E+00 Y = 3.585480639280378E+00 Z =-4.051769128834797E-01
 VX=-2.439764182523574E-03 VY= 5.150253992090233E-03 VZ= 7.834678167745164E-06
 LT= 5.393076729505077E-02 RG= 9.337822893141501E+00 RR=-2.730292769953203E-04
2472433.500000000 = A.D. 2057-Mar-11 00:00:00.0000 TDB 
 X = 8.537893194101292E+00 Y = 3.739372980176234E+00 Z =-4.048648986023463E-01
 VX=-2.533190463750509E-03 VY= 5.110136265296936E-03 VZ= 1.230048899033683E-05
 LT= 5.388358841646788E-02 RG= 9.329654123539282E+00 RR=-2.705763951319876E-04
2472463.500000000 = A.D. 2057-Apr-10 00:00:00.0000 TDB 
 X = 8.460479859783003E+00 Y = 3.892040837151621E+00 Z =-4.044200736505459E-01
 VX=-2.626272576811509E-03 VY= 5.067971769317505E-03 VZ= 1.694708407645009E-05
 LT= 5.383677129421820E-02 RG= 9.321547990104500E+00 RR=-2.683703284416830E-04
2472493.500000000 = A.D. 2057-May-10 00:00:00.0000 TDB 
 X = 8.380274841345765E+00 Y = 4.043432465436709E+00 Z =-4.038424583935563E-01
 VX=-2.719200696146326E-03 VY= 5.024064308398296E-03 VZ= 2.164576244653301E-05
 LT= 5.379033927969295E-02 RG= 9.313508536005198E+00 RR=-2.664866755413121E-04
2472523.500000000 = A.D. 2057-Jun-09 00:00:00.0000 TDB 
 X = 8.297296395092546E+00 Y = 4.193494307532423E+00 Z =-4.031316360568336E-01
 VX=-2.811809897095554E-03 VY= 4.978566019591689E-03 VZ= 2.627650896577980E-05
 LT= 5.374430518553914E-02 RG= 9.305537979682446E+00 RR=-2.647267420166594E-04
2472553.500000000 = A.D. 2057-Jul-09 00:00:00.0000 TDB 
 X = 8.211564117564372E+00 Y = 4.342171990933564E+00 Z =-4.022873630678105E-01
 VX=-2.903892363502315E-03 VY= 4.931640884605056E-03 VZ= 3.073205396155025E-05
 LT= 5.369868044711136E-02 RG= 9.297638301106510E+00 RR=-2.628440097082410E-04
2472583.500000000 = A.D. 2057-Aug-08 00:00:00.0000 TDB 
 X = 8.123098094368798E+00 Y = 4.489410752219475E+00 Z =-4.013090819746124E-01
 VX=-2.995006059557042E-03 VY= 4.883252868087403E-03 VZ= 3.498583170167568E-05
 LT= 5.365347127546098E-02 RG= 9.289810575687598E+00 RR=-2.604832677156984E-04
2472613.500000000 = A.D. 2057-Sep-07 00:00:00.0000 TDB 
 X = 8.031919920239623E+00 Y = 4.635155730765453E+00 Z =-4.001964928216610E-01
 VX=-3.084890483321097E-03 VY= 4.833055542298956E-03 VZ= 3.919381438735686E-05
 LT= 5.360868455010219E-02 RG= 9.282055994576666E+00 RR=-2.576275621699484E-04
2472643.500000000 = A.D. 2057-Oct-07 00:00:00.0000 TDB 
 X = 7.938053056645593E+00 Y = 4.779353698337568E+00 Z =-3.989498655701544E-01
 VX=-3.173700074793012E-03 VY= 4.780892212303657E-03 VZ= 4.347515549419167E-05
 LT= 5.356433448857542E-02 RG= 9.274377019464534E+00 RR=-2.545474597210846E-04
2472673.500000000 = A.D. 2057-Nov-06 00:00:00.0000 TDB 
 X = 7.841522352213997E+00 Y = 4.921952466459883E+00 Z =-3.975693603788267E-01
 VX=-3.261504179924712E-03 VY= 4.726716302898847E-03 VZ= 4.788023651167902E-05
 LT= 5.352043866398715E-02 RG= 9.266776693040265E+00 RR=-2.513841387981422E-04
2472703.500000000 = A.D. 2057-Dec-06 00:00:00.0000 TDB 
 X = 7.742353890511785E+00 Y = 5.062900930890747E+00 Z =-3.960554622998944E-01
 VX=-3.348555239068355E-03 VY= 4.670477542689656E-03 VZ= 5.247119979161239E-05
 LT= 5.347701768920915E-02 RG= 9.259258584311972E+00 RR=-2.484341557751773E-04
2472733.500000000 = A.D. 2058-Jan-05 00:00:00.0000 TDB 
 X = 7.640574417587922E+00 Y = 5.202148064742269E+00 Z =-3.944086402896569E-01
 VX=-3.435111989876987E-03 VY= 4.612385819296901E-03 VZ= 5.716443823920547E-05
 LT= 5.343408933867169E-02 RG= 9.251825770826851E+00 RR=-2.458391492017006E-04
2472763.500000000 = A.D. 2058-Feb-04 00:00:00.0000 TDB 
 X = 7.536212207181355E+00 Y = 5.339642046217262E+00 Z =-3.926290118721092E-01
 VX=-3.521070847238454E-03 VY= 4.552704136018017E-03 VZ= 6.181830675942886E-05
 LT= 5.339166954103543E-02 RG= 9.244481010547007E+00 RR=-2.433882800744937E-04
